NORAD_CAT_ID,OBJECT_NAME,OBJECT_TYPE,EPOCH,MEAN_MOTION,ECCENTRICITY,INCLINATION,RA_OF_ASC_NODE,ARG_OF_PERICENTER,MEAN_ANOMALY,BSTAR,MEAN_MOTION_DOT,MEAN_MOTION_DDOT,TLE_LINE0,TLE_LINE1,TLE_LINE2,SEMIMAJOR_AXIS,PERIOD,APOGEE,PERIGEE,DECAYED
55929.0,STARLINK-5898,PAYLOAD,2023-06-16 18:50:53,14.98323398,0.0002944,69.9996,297.8746,267.9725,92.1097,0.00046045,5.404e-05,0.0,0 STARLINK-5898,1 55929U 23037R   23167.78533772  .00005404  00000-0  46045-3 0  9991,2 55929  69.9996 297.8746 0002944 267.9725  92.1097 14.98323398 14160,6950.213,96.107,574.124,570.032,0.0
55929.0,STARLINK-5898,PAYLOAD,2023-06-17 09:16:06,14.98322798,0.0003191,69.9997,296.3597,267.1702,92.9092,-7.7199e-05,-1.014e-05,0.0,0 STARLINK-5898,1 55929U 23037R   23168.38619060 -.00001014  00000-0 -77199-4 0  9993,2 55929  69.9997 296.3597 0003191 267.1702  92.9092 14.98322798 14257,6950.215,96.107,574.298,569.862,0.0
55929.0,STARLINK-5898,PAYLOAD,2023-06-17 12:28:23,14.98321767,0.00031,69.9995,296.0232,269.0717,91.0087,-8.151e-05,-1.065e-05,0.0,0 STARLINK-5898,1 55929U 23037R   23168.51971204 -.00001065  00000-0 -81510-4 0  9997,2 55929  69.9995 296.0232 0003100 269.0717  91.0087 14.98321767 14614,6950.218,96.108,574.238,569.929,0.0
55929.0,STARLINK-5898,PAYLOAD,2023-06-17 15:40:39,14.98320388,0.0003001,70.0,295.6869,269.2713,90.8102,-0.00010273,-1.318e-05,0.0,0 STARLINK-5898,1 55929U 23037R   23168.65323421 -.00001318  00000-0 -10273-3 0  9992,2 55929  70.0000 295.6869 0003001 269.2713  90.8102 14.98320388 14290,6950.223,96.108,574.173,570.002,0.0
55929.0,STARLINK-5898,PAYLOAD,2023-06-18 01:17:27,14.98326647,0.0003029,70.0001,294.677,270.5205,89.5607,-7.5125e-05,-9.89e-06,0.0,0 STARLINK-5898,1 55929U 23037R   23169.05379091 -.00000989  00000-0 -75125-4 0  9992,2 55929  70.0001 294.6770 0003029 270.5205  89.5607 14.98326647 14358,6950.203,96.107,574.173,569.963,0.0
55929.0,STARLINK-5898,PAYLOAD,2023-06-18 10:54:15,14.98331902,0.0003252,69.9993,293.6667,269.8086,90.2701,-7.8365e-05,-1.028e-05,0.0,0 STARLINK-5898,1 55929U 23037R   23169.45434732 -.00001028  00000-0 -78365-4 0  9994,2 55929  69.9993 293.6667 0003252 269.8086  90.2701 14.98331902 14753,6950.187,96.107,574.312,569.792,0.0
55929.0,STARLINK-5898,PAYLOAD,2023-06-19 01:19:27,14.98338284,0.0003239,69.9994,292.1517,270.1089,89.9699,-5.8299e-05,-7.89e-06,0.0,0 STARLINK-5898,1 55929U 23037R   23170.05518090 -.00000789  00000-0 -58299-4 0  9999,2 55929  69.9994 292.1517 0003239 270.1089  89.9699 14.98338284 14846,6950.167,96.106,574.283,569.781,0.0
55929.0,STARLINK-5898,PAYLOAD,2023-06-20 01:21:28,14.98328247,0.0003241,69.9996,289.6272,270.0731,90.0056,6.392e-05,6.7e-06,0.0,0 STARLINK-5898,1 55929U 23037R   23171.05658495  .00000670  00000-0  63920-4 0  9998,2 55929  69.9996 289.6272 0003241 270.0731  90.0056 14.98328247 14997,6950.198,96.107,574.316,569.811,0.0
55929.0,STARLINK-5898,PAYLOAD,2023-06-20 17:22:49,14.98328766,0.0003253,69.9998,287.9446,269.2953,90.7833,-4.1182e-05,-5.84e-06,0.0,0 STARLINK-5898,1 55929U 23037R   23171.72418791 -.00000584  00000-0 -41182-4 0  9997,2 55929  69.9998 287.9446 0003253 269.2953  90.7833 14.98328766 14752,6950.197,96.107,574.323,569.801,0.0
55929.0,STARLINK-5898,PAYLOAD,2023-06-21 01:23:29,14.98332701,0.0003314,69.9997,287.1019,269.4754,90.6025,-1.0259e-05,-2.15e-06,0.0,0 STARLINK-5898,1 55929U 23037R   23172.05798412 -.00000215  00000-0 -10259-4 0  9997,2 55929  69.9997 287.1019 0003314 269.4754  90.6025 14.98332701 15148,6950.185,96.107,574.353,569.746,0.0
55929.0,STARLINK-5898,PAYLOAD,2023-06-21 14:12:33,14.9833591,0.0003367,69.9996,285.7552,269.4786,90.5988,2.2954e-05,1.81e-06,0.0,0 STARLINK-5898,1 55929U 23037R   23172.59206006  .00000181  00000-0  22954-4 0  9994,2 55929  69.9996 285.7552 0003367 269.4786  90.5988 14.98335910 14888,6950.175,96.107,574.38,569.699,0.0
55929.0,STARLINK-5898,PAYLOAD,2023-06-21 17:24:49,14.98337631,0.0003214,69.9997,285.4186,266.6516,93.4276,4.1583e-05,4.03e-06,0.0,0 STARLINK-5898,1 55929U 23037R   23172.72557795  .00000403  00000-0  41583-4 0  9999,2 55929  69.9997 285.4186 0003214 266.6516  93.4276 14.98337631 14907,6950.169,96.107,574.268,569.801,0.0
55929.0,STARLINK-5898,PAYLOAD,2023-06-22 01:25:30,14.98333632,0.0003284,69.9998,284.5767,269.6949,90.3834,-0.0001096,-1.401e-05,0.0,0 STARLINK-5898,1 55929U 23037R   23173.05938342 -.00001401  00000-0 -10960-3 0  9992,2 55929  69.9998 284.5767 0003284 269.6949  90.3834 14.98333632 15299,6950.182,96.107,574.329,569.764,0.0
55929.0,STARLINK-5898,PAYLOAD,2023-06-23 09:28:11,14.98333853,0.0003286,69.9996,281.2105,270.5635,89.5148,5.1188e-06,-3.2e-07,0.0,0 STARLINK-5898,1 55929U 23037R   23174.39458052 -.00000032  00000-0  51188-5 0  9992,2 55929  69.9996 281.2105 0003286 270.5635  89.5148 14.98333853 15497,6950.181,96.107,574.33,569.762,0.0
55929.0,STARLINK-5898,PAYLOAD,2023-06-23 17:28:51,14.98340419,0.0003327,69.9997,280.3692,269.9766,90.1012,5.8073e-05,6e-06,0.0,0 STARLINK-5898,1 55929U 23037R   23174.72837346  .00000600  00000-0  58073-4 0  9995,2 55929  69.9997 280.3692 0003327 269.9766  90.1012 14.98340419 15542,6950.161,96.106,574.338,569.713,0.0
55929.0,STARLINK-5898,PAYLOAD,2023-06-24 07:54:04,14.98325975,0.0003156,69.9993,278.8541,272.4739,87.6059,2.2409e-05,1.74e-06,0.0,0 STARLINK-5898,1 55929U 23037R   23175.32922323  .00000174  00000-0  22409-4 0  9992,2 55929  69.9993 278.8541 0003156 272.4739  87.6059 14.98325975 15634,6950.205,96.107,574.264,569.877,0.0
55929.0,STARLINK-5898,PAYLOAD,2023-06-24 23:55:24,14.9836663,0.000344,69.9997,277.1717,276.4972,83.5795,-0.00067988,-8.204e-05,0.0,0 STARLINK-5898,1 55929U 23037R   23175.99681315 -.00008204  00000-0 -67988-3 0  9992,2 55929  69.9997 277.1717 0003440 276.4972  83.5795 14.98366630 15730,6950.08,96.105,574.335,569.554,0.0
55929.0,STARLINK-5898,PAYLOAD,2023-06-25 09:32:13,14.98329033,0.0003292,70.0,276.1625,272.0702,88.008,1.2744e-05,5.9e-07,0.0,0 STARLINK-5898,1 55929U 23037R   23176.39738146  .00000059  00000-0  12744-4 0  9991,2 55929  70.0000 276.1625 0003292 272.0702  88.0080 14.98329033 15792,6950.196,96.107,574.349,569.773,0.0
55929.0,STARLINK-5898,PAYLOAD,2023-06-26 09:34:15,14.98319944,0.0003306,69.9994,273.6345,269.1021,90.9759,9.1153e-06,1.6e-07,0.0,0 STARLINK-5898,1 55929U 23037R   23177.39878758  .00000016  00000-0  91153-5 0  9991,2 55929  69.9994 273.6345 0003306 269.1021  90.9759 14.98319944 15941,6950.224,96.108,574.387,569.791,0.0
55929.0,STARLINK-5898,PAYLOAD,2023-06-27 11:12:23,14.98328562,0.0003515,69.9992,270.9415,266.5422,93.5335,0.00013005,1.459e-05,0.0,0 STARLINK-5898,1 55929U 23037R   23178.46693978  .00001459  00000-0  13005-3 0  9999,2 55929  69.9992 270.9415 0003515 266.5422  93.5335 14.98328562 16109,6950.197,96.107,574.505,569.619,0.0
55929.0,STARLINK-5898,PAYLOAD,2023-06-28 09:38:15,14.98341094,0.0003485,69.9992,268.5861,267.0061,93.0699,0.0002146,2.469e-05,0.0,0 STARLINK-5898,1 55929U 23037R   23179.40156462  .00002469  00000-0  21460-3 0  9992,2 55929  69.9992 268.5861 0003485 267.0061  93.0699 14.98341094 16246,6950.159,96.106,574.446,569.601,0.0
55929.0,STARLINK-5898,PAYLOAD,2023-06-29 11:16:25,14.9832413,0.0003666,69.9992,265.893,268.5961,91.4778,-0.00013133,-1.66e-05,0.0,0 STARLINK-5898,1 55929U 23037R   23180.46974139 -.00001660  00000-0 -13133-3 0  9991,2 55929  69.9992 265.8930 0003666 268.5961  91.4778 14.98324130 16409,6950.211,96.107,574.624,569.528,0.0
55929.0,STARLINK-5898,PAYLOAD,2023-06-30 14:30:41,14.98335629,0.000367,69.9993,263.031,265.9936,94.0803,-5.4003e-05,-7.38e-06,0.0,0 STARLINK-5898,1 55929U 23037R   23181.60465156 -.00000738  00000-0 -54003-4 0  9999,2 55929  69.9993 263.0310 0003670 265.9936  94.0803 14.98335629 16571,6950.175,96.107,574.591,569.49,0.0
55929.0,STARLINK-5898,PAYLOAD,2023-07-01 09:44:19,14.98316789,0.0003635,69.9992,261.0116,263.5107,96.5638,6.7173e-05,7.08e-06,0.0,0 STARLINK-5898,1 55929U 23037R   23182.40578163  .00000708  00000-0  67173-4 0  9998,2 55929  69.9992 261.0116 0003635 263.5107  96.5638 14.98316789 16699,6950.234,96.108,574.625,569.572,0.0
55929.0,STARLINK-5898,PAYLOAD,2023-07-02 11:22:28,14.98332295,0.0003689,69.9993,258.3188,265.3111,94.7627,8.119e-06,4e-08,0.0,0 STARLINK-5898,1 55929U 23037R   23183.47393761  .00000004  00000-0  81190-5 0  9990,2 55929  69.9993 258.3188 0003689 265.3111  94.7627 14.98332295 16858,6950.186,96.107,574.615,569.487,0.0
55929.0,STARLINK-5898,PAYLOAD,2023-07-03 11:24:28,14.98333105,0.0003757,69.9991,255.7934,265.2885,94.7845,9.2354e-05,1.009e-05,0.0,0 STARLINK-5898,1 55929U 23037R   23184.47533334  .00001009  00000-0  92354-4 0  9992,2 55929  69.9991 255.7934 0003757 265.2885  94.7845 14.98333105 17000,6950.183,96.107,574.659,569.437,0.0
55929.0,STARLINK-5898,PAYLOAD,2023-07-04 11:26:30,14.98328489,0.0003708,69.9992,253.2686,265.1231,94.9504,-5.1244e-05,-7.04e-06,0.0,0 STARLINK-5898,1 55929U 23037R   23185.47673917 -.00000704  00000-0 -51244-4 0  9991,2 55929  69.9992 253.2686 0003708 265.1231  94.9504 14.98328489 17157,6950.198,96.107,574.64,569.485,0.0
55929.0,STARLINK-5898,PAYLOAD,2023-07-05 14:40:47,14.98331766,0.0003668,69.9996,250.408,264.5791,95.495,-4.9936e-05,-6.89e-06,0.0,0 STARLINK-5898,1 55929U 23037R   23186.61165606 -.00000689  00000-0 -49936-4 0  9996,2 55929  69.9996 250.4080 0003668 264.5791  95.4950 14.98331766 17329,6950.187,96.107,574.602,569.503,0.0
55929.0,STARLINK-5898,PAYLOAD,2023-07-06 14:42:47,14.98331754,0.0003749,69.9994,247.8826,266.3903,93.6827,6.6339e-05,6.99e-06,0.0,0 STARLINK-5898,1 55929U 23037R   23187.61305213  .00000699  00000-0  66339-4 0  9992,2 55929  69.9994 247.8826 0003749 266.3903  93.6827 14.98331754 17476,6950.187,96.107,574.658,569.447,0.0
55929.0,STARLINK-5898,PAYLOAD,2023-07-07 14:44:48,14.98332744,0.0003701,69.9997,245.3582,265.1429,94.9307,3.6316e-05,3.4e-06,0.0,0 STARLINK-5898,1 55929U 23037R   23188.61445121  .00000340  00000-0  36316-4 0  9991,2 55929  69.9997 245.3582 0003701 265.1429  94.9307 14.98332744 17623,6950.184,96.107,574.622,569.477,0.0
